{
  "type": "FeatureCollection",
  "features": [
    {
      "type": "Feature",
      "properties": {
        "norad_id": 33924,
        "name": "COSMOS 2251 DEB",
        "group": "cosmos-2251-debris",
        "lat": 6.886977509122054,
        "lon": -72.4719571969632,
        "alt_km": 853.0051183563637,
        "timestamp": "2025-12-03T04:52:30.031657+00:00",
        "meta_object_name": "COSMOS 2251 DEB",
        "meta_object_id": "1993-036ED",
        "meta_epoch": "2025-12-02T19:57:03.805056",
        "meta_mean_motion": 13.5019062,
        "meta_eccentricity": 0.040407,
        "meta_inclination": 73.9131,
        "meta_ra_of_asc_node": 286.1281,
        "meta_arg_of_pericenter": 323.3225,
        "meta_mean_anomaly": 34.0829,
        "meta_ephemeris_type": 0,
        "meta_classification_type": "U",
        "meta_norad_cat_id": 33924,
        "meta_element_set_no": 999,
        "meta_rev_at_epoch": 82605,
        "meta_bstar": 0.0015044,
        "meta_mean_motion_dot": 1.572e-05,
        "meta_mean_motion_ddot": 0,
        "tle_line1": "1 33924U 93036ED  25336.83129404  .00001572  00000+0  15044-2 0  9992",
        "tle_line2": "2 33924  73.9131 286.1281 0404070 323.3225  34.0829 13.50190620826054"
      },
      "geometry": {
        "type": "Point",
        "coordinates": [
          -72.4719571969632,
          6.886977509122054
        ]
      }
    },
    {
      "type": "Feature",
      "properties": {
        "norad_id": 33928,
        "name": "COSMOS 2251 DEB",
        "group": "cosmos-2251-debris",
        "lat": -4.055574822771976,
        "lon": -108.3090412869996,
        "alt_km": 780.6919525355297,
        "timestamp": "2025-12-03T04:52:30.031667+00:00",
        "meta_object_name": "COSMOS 2251 DEB",
        "meta_object_id": "1993-036EH",
        "meta_epoch": "2025-12-02T13:05:53.530080",
        "meta_mean_motion": 14.47373014,
        "meta_eccentricity": 0.0060969,
        "meta_inclination": 73.9259,
        "meta_ra_of_asc_node": 71.7566,
        "meta_arg_of_pericenter": 8.1306,
        "meta_mean_anomaly": 352.0824,
        "meta_ephemeris_type": 0,
        "meta_classification_type": "U",
        "meta_norad_cat_id": 33928,
        "meta_element_set_no": 999,
        "meta_rev_at_epoch": 88497,
        "meta_bstar": 0.00032653116,
        "meta_mean_motion_dot": 1.196e-05,
        "meta_mean_motion_ddot": 0,
        "tle_line1": "1 33928U 93036EH  25336.54575845  .00001196  00000+0  32653-3 0  9996",
        "tle_line2": "2 33928  73.9259  71.7566 0060969   8.1306 352.0824 14.47373014884976"
      },
      "geometry": {
        "type": "Point",
        "coordinates": [
          -108.3090412869996,
          -4.055574822771976
        ]
      }
    },
    {
      "type": "Feature",
      "properties": {
        "norad_id": 33932,
        "name": "COSMOS 2251 DEB",
        "group": "cosmos-2251-debris",
        "lat": -70.33068603548232,
        "lon": -153.27196254788944,
        "alt_km": 792.0790777295324,
        "timestamp": "2025-12-03T04:52:30.031678+00:00",
        "meta_object_name": "COSMOS 2251 DEB",
        "meta_object_id": "1993-036EM",
        "meta_epoch": "2025-12-02T17:39:56.201760",
        "meta_mean_motion": 14.38710033,
        "meta_eccentricity": 0.0034853,
        "meta_inclination": 74.0335,
        "meta_ra_of_asc_node": 334.368,
        "meta_arg_of_pericenter": 53.4964,
        "meta_mean_anomaly": 306.9391,
        "meta_ephemeris_type": 0,
        "meta_classification_type": "U",
        "meta_norad_cat_id": 33932,
        "meta_element_set_no": 999,
        "meta_rev_at_epoch": 87854,
        "meta_bstar": 0.00057705,
        "meta_mean_motion_dot": 1.757e-05,
        "meta_mean_motion_ddot": 0,
        "tle_line1": "1 33932U 93036EM  25336.73606715  .00001757  00000+0  57705-3 0  9991",
        "tle_line2": "2 33932  74.0335 334.3680 0034853  53.4964 306.9391 14.38710033878548"
      },
      "geometry": {
        "type": "Point",
        "coordinates": [
          -153.27196254788944,
          -70.33068603548232
        ]
      }
    },
    {
      "type": "Feature",
      "properties": {
        "norad_id": 33933,
        "name": "COSMOS 2251 DEB",
        "group": "cosmos-2251-debris",
        "lat": -66.79419866335299,
        "lon": 35.80778215625952,
        "alt_km": 835.203041326803,
        "timestamp": "2025-12-03T04:52:30.031688+00:00",
        "meta_object_name": "COSMOS 2251 DEB",
        "meta_object_id": "1993-036EN",
        "meta_epoch": "2025-12-02T17:29:32.962272",
        "meta_mean_motion": 14.33460367,
        "meta_eccentricity": 0.0070861,
        "meta_inclination": 74.0891,
        "meta_ra_of_asc_node": 78.3806,
        "meta_arg_of_pericenter": 89.804,
        "meta_mean_anomaly": 271.1232,
        "meta_ephemeris_type": 0,
        "meta_classification_type": "U",
        "meta_norad_cat_id": 33933,
        "meta_element_set_no": 999,
        "meta_rev_at_epoch": 87641,
        "meta_bstar": 0.00043029,
        "meta_mean_motion_dot": 1.197e-05,
        "meta_mean_motion_ddot": 0,
        "tle_line1": "1 33933U 93036EN  25336.72885373  .00001197  00000+0  43029-3 0  9992",
        "tle_line2": "2 33933  74.0891  78.3806 0070861  89.8040 271.1232 14.33460367876416"
      },
      "geometry": {
        "type": "Point",
        "coordinates": [
          35.80778215625952,
          -66.79419866335299
        ]
      }
    },
    {
      "type": "Feature",
      "properties": {
        "norad_id": 33934,
        "name": "COSMOS 2251 DEB",
        "group": "cosmos-2251-debris",
        "lat": -62.35517590427726,
        "lon": -28.133768193150168,
        "alt_km": 692.0593476368431,
        "timestamp": "2025-12-03T04:52:30.031699+00:00",
        "meta_object_name": "COSMOS 2251 DEB",
        "meta_object_id": "1993-036EP",
        "meta_epoch": "2025-12-02T19:31:00.975072",
        "meta_mean_motion": 14.589573,
        "meta_eccentricity": 0.0016025,
        "meta_inclination": 74.0364,
        "meta_ra_of_asc_node": 119.4816,
        "meta_arg_of_pericenter": 243.0046,
        "meta_mean_anomaly": 116.9483,
        "meta_ephemeris_type": 0,
        "meta_classification_type": "U",
        "meta_norad_cat_id": 33934,
        "meta_element_set_no": 999,
        "meta_rev_at_epoch": 88594,
        "meta_bstar": 0.0013348,
        "meta_mean_motion_dot": 6.249e-05,
        "meta_mean_motion_ddot": 0,
        "tle_line1": "1 33934U 93036EP  25336.81320573  .00006249  00000+0  13348-2 0  9992",
        "tle_line2": "2 33934  74.0364 119.4816 0016025 243.0046 116.9483 14.58957300885949"
      },
      "geometry": {
        "type": "Point",
        "coordinates": [
          -28.133768193150168,
          -62.35517590427726
        ]
      }
    },
    {
      "type": "Feature",
      "properties": {
        "norad_id": 33936,
        "name": "COSMOS 2251 DEB",
        "group": "cosmos-2251-debris",
        "lat": 43.48363856448349,
        "lon": -140.06146748283965,
        "alt_km": 684.6246672418702,
        "timestamp": "2025-12-03T04:52:30.031709+00:00",
        "meta_object_name": "COSMOS 2251 DEB",
        "meta_object_id": "1993-036ER",
        "meta_epoch": "2025-12-02T15:06:20.071008",
        "meta_mean_motion": 14.60153925,
        "meta_eccentricity": 0.00281797,
        "meta_inclination": 74.0194,
        "meta_ra_of_asc_node": 56.8049,
        "meta_arg_of_pericenter": 213.8734,
        "meta_mean_anomaly": 146.0633,
        "meta_ephemeris_type": 0,
        "meta_classification_type": "U",
        "meta_norad_cat_id": 33936,
        "meta_element_set_no": 999,
        "meta_rev_at_epoch": 88742,
        "meta_bstar": 0.0010793335,
        "meta_mean_motion_dot": 5.2e-05,
        "meta_mean_motion_ddot": 0,
        "tle_line1": "1 33936U 93036ER  25336.62939897  .00005200  00000+0  10793-2 0  9995",
        "tle_line2": "2 33936  74.0194  56.8049 0028179 213.8734 146.0633 14.60153925887426"
      },
      "geometry": {
        "type": "Point",
        "coordinates": [
          -140.06146748283965,
          43.48363856448349
        ]
      }
    },
    {
      "type": "Feature",
      "properties": {
        "norad_id": 33938,
        "name": "COSMOS 2251 DEB",
        "group": "cosmos-2251-debris",
        "lat": 74.03259802021044,
        "lon": -46.271283475384486,
        "alt_km": 738.2980126332077,
        "timestamp": "2025-12-03T04:52:30.031719+00:00",
        "meta_object_name": "COSMOS 2251 DEB",
        "meta_object_id": "1993-036ET",
        "meta_epoch": "2025-12-02T18:48:41.607360",
        "meta_mean_motion": 14.46741202,
        "meta_eccentricity": 0.0016848,
        "meta_inclination": 74.0461,
        "meta_ra_of_asc_node": 225.7625,
        "meta_arg_of_pericenter": 308.7202,
        "meta_mean_anomaly": 117.8216,
        "meta_ephemeris_type": 0,
        "meta_classification_type": "U",
        "meta_norad_cat_id": 33938,
        "meta_element_set_no": 999,
        "meta_rev_at_epoch": 88256,
        "meta_bstar": 0.00062812,
        "meta_mean_motion_dot": 2.25e-05,
        "meta_mean_motion_ddot": 0,
        "tle_line1": "1 33938U 93036ET  25336.78381490  .00002250  00000+0  62812-3 0  9996",
        "tle_line2": "2 33938  74.0461 225.7625 0016848 308.7202 117.8216 14.46741202882564"
      },
      "geometry": {
        "type": "Point",
        "coordinates": [
          -46.271283475384486,
          74.03259802021044
        ]
      }
    }
  ]
}